{
    "links": {
        "self": "http://www.neowsapp.com/rest/v1/neo/3311267?api_key=iIulBulltgU6a56xZRHN4H3l9WmuAYTsLGpBGhQ2"
    },
    "id": "3311267",
    "neo_reference_id": "3311267",
    "name": "(2006 AV2)",
    "designation": "2006 AV2",
    "nasa_jpl_url": "http://ssd.jpl.nasa.gov/sbdb.cgi?sstr=3311267",
    "absolute_magnitude_h": 20.6,
    "estimated_diameter": {
        "kilometers": {
            "estimated_diameter_min": 0.2016299194,
            "estimated_diameter_max": 0.4508582062
        },
        "meters": {
            "estimated_diameter_min": 201.6299194428,
            "estimated_diameter_max": 450.8582061718
        },
        "miles": {
            "estimated_diameter_min": 0.1252869847,
            "estimated_diameter_max": 0.2801502144
        },
        "feet": {
            "estimated_diameter_min": 661.5155049046,
            "estimated_diameter_max": 1479.1936371367
        }
    },
    "is_potentially_hazardous_asteroid": false,
    "close_approach_data": [
        {
            "close_approach_date": "2006-01-29",
            "close_approach_date_full": "2006-Jan-29 11:18",
            "epoch_date_close_approach": 1138533480000,
            "relative_velocity": {
                "kilometers_per_second": "3.8326408551",
                "kilometers_per_hour": "13797.5070784339",
                "miles_per_hour": "8573.2343288191"
            },
            "miss_distance": {
                "astronomical": "0.2745814291",
                "lunar": "106.8121759199",
                "kilometers": "41076796.934916017",
                "miles": "25523938.0546223546"
            },
            "orbiting_body": "Earth"
        }
    ],
    "orbital_data": {
        "orbit_id": "26",
        "orbit_determination_date": "2017-04-06 09:09:32",
        "first_observation_date": "2006-01-05",
        "last_observation_date": "2006-03-25",
        "data_arc_in_days": 79,
        "observations_used": 133,
        "orbit_uncertainty": "5",
        "minimum_orbit_intersection": ".265123",
        "jupiter_tisserand_invariant": "3.348",
        "epoch_osculation": "2459000.5",
        "eccentricity": ".4807235090374816",
        "semi_major_axis": "2.406989695529366",
        "inclination": "6.020298123612347",
        "ascending_node_longitude": "304.2175542232157",
        "orbital_period": "1363.985562491449",
        "perihelion_distance": "1.24989316287743",
        "perihelion_argument": "184.5234323526481",
        "aphelion_distance": "3.564086228181303",
        "perihelion_time": "2459223.918352030620",
        "mean_anomaly": "301.0326553720196",
        "mean_motion": ".2639324124094289",
        "equinox": "J2000",
        "orbit_class": {
            "orbit_class_type": "AMO",
            "orbit_class_description": "Near-Earth asteroid orbits similar to that of 1221 Amor",
            "orbit_class_range": "1.017 AU < q (perihelion) < 1.3 AU"
        }
    },
    "is_sentry_object": false
}